$$SOE
2461302.500000000, A.D. 2026-Sep-19 00:00:00.0000, -2.377625133783803E+08, 3.771646946930481E+08, 1.037703717460197E+08,
2461309.500000000, A.D. 2026-Sep-26 00:00:00.0000, -2.443954896729113E+08, 3.702885564366589E+08, 1.054965628057437E+08,
2461316.500000000, A.D. 2026-Oct-03 00:00:00.0000, -2.509035888566946E+08, 3.632230571553438E+08, 1.071686680076122E+08,
2461323.500000000, A.D. 2026-Oct-10 00:00:00.0000, -2.572819770428056E+08, 3.559696399879687E+08, 1.087851906412454E+08,
2461330.500000000, A.D. 2026-Oct-17 00:00:00.0000, -2.635257575418780E+08, 3.485298581940314E+08, 1.103446210963008E+08,
2461337.500000000, A.D. 2026-Oct-24 00:00:00.0000, -2.696299706782248E+08, 3.409053804180683E+08, 1.118454371330269E+08,
2461344.500000000, A.D. 2026-Oct-31 00:00:00.0000, -2.755895936785628E+08, 3.330979960317151E+08, 1.132861041987466E+08,
2461351.500000000, A.D. 2026-Nov-07 00:00:00.0000, -2.813995403112853E+08, 3.251096206332604E+08, 1.146650757713545E+08,
2461358.500000000, A.D. 2026-Nov-14 00:00:00.0000, -2.870546600941969E+08, 3.169423025972738E+08, 1.159807937905994E+08,
2461365.500000000, A.D. 2026-Nov-21 00:00:00.0000, -2.925497389037645E+08, 3.085982313616797E+08, 1.172316894067636E+08,
2461372.500000000, A.D. 2026-Nov-28 00:00:00.0000, -2.978795020058926E+08, 3.000797444504993E+08, 1.184161839009497E+08,
2461379.500000000, A.D. 2026-Dec-05 00:00:00.0000, -3.030386159095186E+08, 2.913893325788721E+08, 1.195326893989834E+08,
2461386.500000000, A.D. 2026-Dec-12 00:00:00.0000, -3.080216889033809E+08, 2.825296459516446E+08, 1.205796096263939E+08,
2461393.500000000, A.D. 2026-Dec-19 00:00:00.0000, -3.128232721921389E+08, 2.735035017647702E+08, 1.215553408885408E+08,
2461400.500000000, A.D. 2026-Dec-26 00:00:00.0000, -3.174378618023134E+08, 2.643138920436537E+08, 1.224582732283736E+08,
2461407.500000000, A.D. 2027-Jan-02 00:00:00.0000, -3.218599010108196E+08, 2.549639916262538E+08, 1.232867917305629E+08,
2461414.500000000, A.D. 2027-Jan-09 00:00:00.0000, -3.260837832100983E+08, 2.454571663064914E+08, 1.240392779723626E+08,
2461421.500000000, A.D. 2027-Jan-16 00:00:00.0000, -3.301038552088869E+08, 2.357969811390110E+08, 1.247141116285099E+08,
2461428.500000000, A.D. 2027-Jan-23 00:00:00.0000, -3.339144209611216E+08, 2.259872088553893E+08, 1.253096722337313E+08,
2461435.500000000, A.D. 2027-Jan-30 00:00:00.0000, -3.375097455773204E+08, 2.160318383322088E+08, 1.258243410943683E+08,
2461442.500000000, A.D. 2027-Feb-06 00:00:00.0000, -3.408840592378807E+08, 2.059350834377346E+08, 1.262565033516736E+08,
2461449.500000000, A.D. 2027-Feb-13 00:00:00.0000, -3.440315615140467E+08, 1.957013934608437E+08, 1.266045503526334E+08,
2461456.500000000, A.D. 2027-Feb-20 00:00:00.0000, -3.469464285078332E+08, 1.853354643119334E+08, 1.268668824947383E+08,
2461463.500000000, A.D. 2027-Feb-27 00:00:00.0000, -3.496228214622748E+08, 1.748422472596626E+08, 1.270419121679900E+08,
2461470.500000000, A.D. 2027-Mar-06 00:00:00.0000, -3.520548938685022E+08, 1.642269570957969E+08, 1.271280666859552E+08,
2461477.500000000, A.D. 2027-Mar-13 00:00:00.0000, -3.542367987185420E+08, 1.534950817382948E+08, 1.271237915318087E+08,
2461484.500000000, A.D. 2027-Mar-20 00:00:00.0000, -3.561626970871806E+08, 1.426523923950932E+08, 1.270275539691069E+08,
2461491.500000000, A.D. 2027-Mar-27 00:00:00.0000, -3.578267678946465E+08, 1.317049536924144E+08, 1.268378469686786E+08,
2461498.500000000, A.D. 2027-Apr-03 00:00:00.0000, -3.592232187002419E+08, 1.206591336653854E+08, 1.265531934432346E+08,
2461505.500000000, A.D. 2027-Apr-10 00:00:00.0000, -3.603462975186747E+08, 1.095216135718829E+08, 1.261721507995855E+08,
2461512.500000000, A.D. 2027-Apr-17 00:00:00.0000, -3.611903056894698E+08, 9.829939744529194E+07, 1.256933158181984E+08,
2461519.500000000, A.D. 2027-Apr-24 00:00:00.0000, -3.617496117712579E+08, 8.699982124554595E+07, 1.251153298595220E+08,
2461526.500000000, A.D. 2027-May-01 00:00:00.0000, -3.620186662099253E+08, 7.563056154859498E+07, 1.244368843820721E+08,
2461533.500000000, A.D. 2027-May-08 00:00:00.0000, -3.619920165183666E+08, 6.419964442500681E+07, 1.236567268134090E+08,
2461540.500000000, A.D. 2027-May-15 00:00:00.0000, -3.616643245061163E+08, 5.271545535243268E+07, 1.227736669952808E+08,
2461547.500000000, A.D. 2027-May-22 00:00:00.0000, -3.610303871612410E+08, 4.118674745112549E+07, 1.217865841394194E+08,
2461554.500000000, A.D. 2027-May-29 00:00:00.0000, -3.600851578605304E+08, 2.962264644691580E+07, 1.206944338687534E+08,
2461561.500000000, A.D. 2027-Jun-05 00:00:00.0000, -3.588237670419112E+08, 1.803265535520527E+07, 1.194962555153165E+08,
2461568.500000000, A.D. 2027-Jun-12 00:00:00.0000, -3.572415443557070E+08, 6.426659164795794E+06, 1.181911798860615E+08,
2461575.500000000, A.D. 2027-Jun-19 00:00:00.0000, -3.553340426277273E+08, -5.185071577215597E+06, 1.167784374402676E+08,
2461582.500000000, A.D. 2027-Jun-26 00:00:00.0000, -3.530970633436988E+08, -1.679187871226673E+07, 1.152573668169497E+08,
2461589.500000000, A.D. 2027-Jul-03 00:00:00.0000, -3.505266834946088E+08, -2.838271612095561E+07, 1.136274236796378E+08,
2461596.500000000, A.D. 2027-Jul-10 00:00:00.0000, -3.476192836994809E+08, -3.994615125807577E+07, 1.118881898478198E+08,
2461603.500000000, A.D. 2027-Jul-17 00:00:00.0000, -3.443715775028521E+08, -5.147036880757335E+07, 1.100393826735134E+08,
2461610.500000000, A.D. 2027-Jul-24 00:00:00.0000, -3.407806416022352E+08, -6.294317672202785E+07, 1.080808646009334E+08,
2461617.500000000, A.D. 2027-Jul-31 00:00:00.0000, -3.368439464814732E+08, -7.435201461567175E+07, 1.060126528399729E+08,
2461624.500000000, A.D. 2027-Aug-07 00:00:00.0000, -3.325593875110503E+08, -8.568396356395690E+07, 1.038349292062041E+08,
2461631.500000000, A.D. 2027-Aug-14 00:00:00.0000, -3.279253186485618E+08, -9.692575776590323E+07, 1.015480502487891E+08,
2461638.500000000, A.D. 2027-Aug-21 00:00:00.0000, -3.229405879263992E+08, -1.080638016310528E+08, 9.915255725793630E+07,
2461645.500000000, A.D. 2027-Aug-28 00:00:00.0000, -3.176045710718018E+08, -1.190841912723151E+08, 9.664918585042344E+07,
2461652.500000000, A.D. 2027-Sep-04 00:00:00.0000, -3.119172041811572E+08, -1.299727380681604E+08, 9.403887534935647E+07,
2461659.500000000, A.D. 2027-Sep-11 00:00:00.0000, -3.058790165499264E+08, -1.407149951015849E+08, 9.132277792448477E+07,
2461666.500000000, A.D. 2027-Sep-18 00:00:00.0000, -2.994911632014320E+08, -1.512962872472589E+08, 8.850226731209275E+07,
2461673.500000000, A.D. 2027-Sep-25 00:00:00.0000, -2.927554565327886E+08, -1.617017450710183E+08, 8.557894696363768E+07,
2461680.500000000, A.D. 2027-Oct-02 00:00:00.0000, -2.856743966180691E+08, -1.719163425597673E+08, 8.255465748597737E+07,
2461687.500000000, A.D. 2027-Oct-09 00:00:00.0000, -2.782511997313628E+08, -1.819249386896573E+08, 7.943148323135647E+07,
2461694.500000000, A.D. 2027-Oct-16 00:00:00.0000, -2.704898245901810E+08, -1.917123228460596E+08, 7.621175788577500E+07,
2461701.500000000, A.D. 2027-Oct-23 00:00:00.0000, -2.623949956120123E+08, -2.012632640076490E+08, 7.289806889281431E+07,
2461708.500000000, A.D. 2027-Oct-30 00:00:00.0000, -2.539722223581325E+08, -2.105625629289039E+08, 6.949326059314425E+07,
2461715.500000000, A.D. 2027-Nov-06 00:00:00.0000, -2.452278158761856E+08, -2.195951059683406E+08, 6.600043614605542E+07,
2461722.500000000, A.D. 2027-Nov-13 00:00:00.0000, -2.361689034792594E+08, -2.283459223444859E+08, 6.242295811738912E+07,
2461729.500000000, A.D. 2027-Nov-20 00:00:00.0000, -2.268034386278543E+08, -2.368002466441348E+08, 5.876444717070331E+07,
2461736.500000000, A.D. 2027-Nov-27 00:00:00.0000, -2.171402038928977E+08, -2.449435831877850E+08, 5.502877885089645E+07,
2461743.500000000, A.D. 2027-Dec-04 00:00:00.0000, -2.071888086546397E+08, -2.527617708374377E+08, 5.122007863186574E+07,
2461750.500000000, A.D. 2027-Dec-11 00:00:00.0000, -1.969596817653840E+08, -2.602410486448423E+08, 4.734271513066105E+07,
2461757.500000000, A.D. 2027-Dec-18 00:00:00.0000, -1.864640586363830E+08, -2.673681220568227E+08, 4.340129138946078E+07,
2461764.500000000, A.D. 2027-Dec-25 00:00:00.0000, -1.757139624028270E+08, -2.741302290103698E+08, 3.940063419302109E+07,
2461771.500000000, A.D. 2028-Jan-01 00:00:00.0000, -1.647221790132355E+08, -2.805152051946215E+08, 3.534578143073542E+07,
$$EOE